CZ-4B R/B               
1 28059U 03049C   17315.79145206  .00000043  00000-0  22196-4 0  9992
2 28059  98.5406 204.5105 0050548 155.8155 246.3183 14.52505924745108
CZ-2C R/B               
1 28222U 04012C   17315.88496191  .00001038  00000-0  67116-4 0  9993
2 28222  97.5448 269.7618 0049228  40.7924  18.8351 15.09470162742896
SL-16 R/B               
1 28353U 04021B   17316.54510518 -.00000352  00000-0 -15969-3 0  9990
2 28353  70.9975 127.3333 0006574 314.1516  45.9065 14.14200272693139
CZ-2C R/B               
1 28480U 04046B   17316.18225375  .00000046  00000-0  32687-4 0  9997
2 28480  98.1944  42.8344 0142729 147.4616 233.2228 14.25656193675325
ARIANE 5 R/B            
1 28499U 04049H   17316.26637748  .00000095  00000-0  18987-4 0  9991
2 28499  98.0718  40.0848 0093750  97.4010 328.2639 14.79860023695896
CZ-2D R/B               
1 28738U 05024B   17315.72290283  .00000728  00000-0  46924-4 0  9995
2 28738  97.4815 349.5928 0011288 210.3577 149.7000 15.11345890678097
SUZAKU (ASTRO-EII)      
1 28773U 05025A   17315.74699221  .00001540  00000-0  73419-4 0  9994
2 28773  31.3834  59.2941 0004660  27.5187 332.5706 15.16185339679782
ALOS (DAICHI)           
1 28931U 06002A   17316.47797909  .00000199  00000-0  48028-4 0  9996
2 28931  97.8329 336.3389 0001197 119.8208 240.3118 14.62420266629138
H-2A R/B                
1 28932U 06002B   17316.43336490  .00000540  00000-0  56291-4 0  9998
2 28932  98.2122 245.3244 0089445 184.8759 292.4365 14.91545451639903
AKARI (ASTRO-F)         
1 28939U 06005A   17315.80516741  .00003511  00000-0  10628-3 0  9991
2 28939  98.2358 172.9014 0105217  34.7836 326.0220 15.29671146635651
RESURS-DK 1             
1 29228U 06021A   17316.53255551  .00000223  00000-0  24266-4 0  9992
2 29228  69.9358  80.6337 0002168 150.7094 209.4188 15.02242903630374
GENESIS 1               
1 29252U 06029A   17315.89631047  .00000594  00000-0  39937-4 0  9995
2 29252  64.5031 163.0130 0031339 313.5045  46.3473 15.17045775624152
CZ-4B R/B               
1 29507U 06046C   17316.48438383  .00000166  00000-0  17858-4 0  9994
2 29507  97.7804 324.1717 0053645 103.4330 257.2880 15.00151206603273
CZ-2C R/B               
1 31114U 07010B   17316.17749338  .00000020  00000-0  28041-4 0  9999
2 31114  98.3831 210.8661 0060339 145.0218 215.4945 14.19256571548514
COSMO-SKYMED 1          
1 31598U 07023A   17316.49422543  .00000484  00000-0  67345-4 0  9994
2 31598  97.8885 138.0805 0001438  92.9260 267.2117 14.82155036564413
GENESIS 2               
1 31789U 07028A   17316.01236031  .00001109  00000-0  67191-4 0  9998
2 31789  64.5039 201.1076 0013670 220.0182 139.9934 15.16311608571313
COSMOS 2428             
1 31792U 07029A   17316.51389263  .00000358  00000-0  22019-3 0  9998
2 31792  70.9340 100.8001 0006157  44.7384 315.4233 14.12376953535012
SL-16 R/B               
1 31793U 07029B   17315.83490729  .00000301  00000-0  18243-3 0  9995
2 31793  70.9758  79.0231 0002512 269.7403 202.6703 14.14389952535553
CZ-4B DEB               
1 33411U 08053D   17315.40721526  .11288782  24851-5  12794-2 0  9999
2 33411  97.3632  13.7523 0007936 279.3174  80.7226 16.36985159499531
KORONAS-FOTON           
1 33504U 09003A   17315.86193168  .00000733  00000-0  37447-4 0  9998
2 33504  82.4421  86.2238 0018401 323.4342  36.5632 15.14997358483734
TIANGONG 1              
1 37820U 11053A   17316.48940972  .00055182  93544-5  17363-3 0  9995
2 37820  42.7565   5.2089 0018272  57.9171 157.7958 15.91014883351488
H-2A R/B                
1 38341U 12025E   17316.21013118  .00000428  00000-0  57835-4 0  9990
2 38341  98.4263  41.4371 0056617  43.2541 317.3096 14.83665676296825
CUSAT 2 & FALCON 9 R/B  
1 39271U 13055G   17316.16466479  .00006788  00000-0  17085-3 0  9990
2 39271  80.9686 200.3637 0625472 123.8282 242.4077 14.39246845213899
ALOS-2                  
1 39766U 14029A   17316.43382223 -.00000033  00000-0  24010-5 0  9991
2 39766  97.9227  51.6360 0001584  87.4747 272.6649 14.79470532187526
SL-27 R/B               
1 40354U 14084B   17316.49737082  .00001445  00000-0  38261-4 0  9999
2 40354  74.7391 186.9974 0038618 136.0645 224.3649 15.38621226162661
ASTRO-H (HITOMI)        
1 41337U 16012A   17315.94957618  .00000589  00000-0  41271-4 0  9995
2 41337  31.0059 262.4206 0012352  59.9555 300.2303 14.98393477 95102
TIANGONG-2              
1 41765U 16057A   17316.43846065  .00007653  00000-0  98517-4 0  9991
2 41765  42.7836 194.0221 0003143 214.2329 147.0199 15.59470967 66127
SHENZHOU-11 MODULE      
1 41868U 16061G   17315.88328905  .00013750  00000-0  12190-3 0  9993
2 41868  42.7939 185.3916 0002780  45.3062  22.9067 15.68430097 56115
